<?xml version="1.0" encoding="UTF-8"?>
<ndm xmlns:xsi="http://www.w3.org/2001/XMLSchema-instance" xsi:noNamespaceSchemaLocation="https://sanaregistry.org/r/ndmxml_unqualified/ndmxml-2.0.0-master-2.0.xsd">
<omm id="CCSDS_OMM_VERS" version="2.0">
<header><CREATION_DATE/><ORIGINATOR/></header><body><segment><metadata><OBJECT_NAME>ORBCOMM FM103</OBJECT_NAME><OBJECT_ID>2014-040F</OBJECT_ID><CENTER_NAME>EARTH</CENTER_NAME><REF_FRAME>TEME</REF_FRAME><TIME_SYSTEM>UTC</TIME_SYSTEM><MEAN_ELEMENT_THEORY>SGP4</MEAN_ELEMENT_THEORY></metadata><data><meanElements><EPOCH>2025-12-26T05:22:20.003232</EPOCH><MEAN_MOTION>14.58553124</MEAN_MOTION><ECCENTRICITY>.00012225</ECCENTRICITY><INCLINATION>47.0033</INCLINATION><RA_OF_ASC_NODE>190.6462</RA_OF_ASC_NODE><ARG_OF_PERICENTER>83.0815</ARG_OF_PERICENTER><MEAN_ANOMALY>277.0209</MEAN_ANOMALY></meanElements><tleParameters><EPHEMERIS_TYPE>0</EPHEMERIS_TYPE><CLASSIFICATION_TYPE>U</CLASSIFICATION_TYPE><NORAD_CAT_ID>40091</NORAD_CAT_ID><ELEMENT_SET_NO>999</ELEMENT_SET_NO><REV_AT_EPOCH>59213</REV_AT_EPOCH><BSTAR>.13896271E-3</BSTAR><MEAN_MOTION_DOT>.482E-5</MEAN_MOTION_DOT><MEAN_MOTION_DDOT>0</MEAN_MOTION_DDOT></tleParameters></data></segment></body></omm>
<omm id="CCSDS_OMM_VERS" version="2.0">
<header><CREATION_DATE/><ORIGINATOR/></header><body><segment><metadata><OBJECT_NAME>ORBCOMM FM114</OBJECT_NAME><OBJECT_ID>2015-081A</OBJECT_ID><CENTER_NAME>EARTH</CENTER_NAME><REF_FRAME>TEME</REF_FRAME><TIME_SYSTEM>UTC</TIME_SYSTEM><MEAN_ELEMENT_THEORY>SGP4</MEAN_ELEMENT_THEORY></metadata><data><meanElements><EPOCH>2025-12-26T05:46:13.318752</EPOCH><MEAN_MOTION>14.58575086</MEAN_MOTION><ECCENTRICITY>.00019157</ECCENTRICITY><INCLINATION>47.0045</INCLINATION><RA_OF_ASC_NODE>99.5205</RA_OF_ASC_NODE><ARG_OF_PERICENTER>151.5718</ARG_OF_PERICENTER><MEAN_ANOMALY>208.5273</MEAN_ANOMALY></meanElements><tleParameters><EPHEMERIS_TYPE>0</EPHEMERIS_TYPE><CLASSIFICATION_TYPE>U</CLASSIFICATION_TYPE><NORAD_CAT_ID>41179</NORAD_CAT_ID><ELEMENT_SET_NO>999</ELEMENT_SET_NO><REV_AT_EPOCH>53250</REV_AT_EPOCH><BSTAR>.18220444E-3</BSTAR><MEAN_MOTION_DOT>.685E-5</MEAN_MOTION_DOT><MEAN_MOTION_DDOT>0</MEAN_MOTION_DDOT></tleParameters></data></segment></body></omm>
<omm id="CCSDS_OMM_VERS" version="2.0">
<header><CREATION_DATE/><ORIGINATOR/></header><body><segment><metadata><OBJECT_NAME>ORBCOMM FM119</OBJECT_NAME><OBJECT_ID>2015-081B</OBJECT_ID><CENTER_NAME>EARTH</CENTER_NAME><REF_FRAME>TEME</REF_FRAME><TIME_SYSTEM>UTC</TIME_SYSTEM><MEAN_ELEMENT_THEORY>SGP4</MEAN_ELEMENT_THEORY></metadata><data><meanElements><EPOCH>2025-12-26T02:23:55.999680</EPOCH><MEAN_MOTION>14.58523744</MEAN_MOTION><ECCENTRICITY>.00016817</ECCENTRICITY><INCLINATION>47.0014</INCLINATION><RA_OF_ASC_NODE>9.5437</RA_OF_ASC_NODE><ARG_OF_PERICENTER>241.9572</ARG_OF_PERICENTER><MEAN_ANOMALY>118.1144</MEAN_ANOMALY></meanElements><tleParameters><EPHEMERIS_TYPE>0</EPHEMERIS_TYPE><CLASSIFICATION_TYPE>U</CLASSIFICATION_TYPE><NORAD_CAT_ID>41180</NORAD_CAT_ID><ELEMENT_SET_NO>999</ELEMENT_SET_NO><REV_AT_EPOCH>53373</REV_AT_EPOCH><BSTAR>.1798642E-3</BSTAR><MEAN_MOTION_DOT>.673E-5</MEAN_MOTION_DOT><MEAN_MOTION_DDOT>0</MEAN_MOTION_DDOT></tleParameters></data></segment></body></omm>
<omm id="CCSDS_OMM_VERS" version="2.0">
<header><CREATION_DATE/><ORIGINATOR/></header><body><segment><metadata><OBJECT_NAME>ORBCOMM FM105</OBJECT_NAME><OBJECT_ID>2015-081C</OBJECT_ID><CENTER_NAME>EARTH</CENTER_NAME><REF_FRAME>TEME</REF_FRAME><TIME_SYSTEM>UTC</TIME_SYSTEM><MEAN_ELEMENT_THEORY>SGP4</MEAN_ELEMENT_THEORY></metadata><data><meanElements><EPOCH>2025-12-26T03:01:43.865760</EPOCH><MEAN_MOTION>14.45415702</MEAN_MOTION><ECCENTRICITY>.00008467</ECCENTRICITY><INCLINATION>47.0020</INCLINATION><RA_OF_ASC_NODE>33.1290</RA_OF_ASC_NODE><ARG_OF_PERICENTER>119.8914</ARG_OF_PERICENTER><MEAN_ANOMALY>240.2051</MEAN_ANOMALY></meanElements><tleParameters><EPHEMERIS_TYPE>0</EPHEMERIS_TYPE><CLASSIFICATION_TYPE>U</CLASSIFICATION_TYPE><NORAD_CAT_ID>41181</NORAD_CAT_ID><ELEMENT_SET_NO>999</ELEMENT_SET_NO><REV_AT_EPOCH>52851</REV_AT_EPOCH><BSTAR>.11386204E-3</BSTAR><MEAN_MOTION_DOT>.246E-5</MEAN_MOTION_DOT><MEAN_MOTION_DDOT>0</MEAN_MOTION_DDOT></tleParameters></data></segment></body></omm>
<omm id="CCSDS_OMM_VERS" version="2.0">
<header><CREATION_DATE/><ORIGINATOR/></header><body><segment><metadata><OBJECT_NAME>ORBCOMM FM110</OBJECT_NAME><OBJECT_ID>2015-081D</OBJECT_ID><CENTER_NAME>EARTH</CENTER_NAME><REF_FRAME>TEME</REF_FRAME><TIME_SYSTEM>UTC</TIME_SYSTEM><MEAN_ELEMENT_THEORY>SGP4</MEAN_ELEMENT_THEORY></metadata><data><meanElements><EPOCH>2025-12-26T07:10:02.838144</EPOCH><MEAN_MOTION>14.58605887</MEAN_MOTION><ECCENTRICITY>.00023418</ECCENTRICITY><INCLINATION>47.0018</INCLINATION><RA_OF_ASC_NODE>98.7414</RA_OF_ASC_NODE><ARG_OF_PERICENTER>334.6350</ARG_OF_PERICENTER><MEAN_ANOMALY>25.4420</MEAN_ANOMALY></meanElements><tleParameters><EPHEMERIS_TYPE>0</EPHEMERIS_TYPE><CLASSIFICATION_TYPE>U</CLASSIFICATION_TYPE><NORAD_CAT_ID>41182</NORAD_CAT_ID><ELEMENT_SET_NO>999</ELEMENT_SET_NO><REV_AT_EPOCH>53238</REV_AT_EPOCH><BSTAR>.22095695E-3</BSTAR><MEAN_MOTION_DOT>.868E-5</MEAN_MOTION_DOT><MEAN_MOTION_DDOT>0</MEAN_MOTION_DDOT></tleParameters></data></segment></body></omm>
<omm id="CCSDS_OMM_VERS" version="2.0">
<header><CREATION_DATE/><ORIGINATOR/></header><body><segment><metadata><OBJECT_NAME>ORBCOMM FM118</OBJECT_NAME><OBJECT_ID>2015-081E</OBJECT_ID><CENTER_NAME>EARTH</CENTER_NAME><REF_FRAME>TEME</REF_FRAME><TIME_SYSTEM>UTC</TIME_SYSTEM><MEAN_ELEMENT_THEORY>SGP4</MEAN_ELEMENT_THEORY></metadata><data><meanElements><EPOCH>2025-12-26T06:21:08.669952</EPOCH><MEAN_MOTION>14.58596798</MEAN_MOTION><ECCENTRICITY>.00032244</ECCENTRICITY><INCLINATION>47.0040</INCLINATION><RA_OF_ASC_NODE>99.2027</RA_OF_ASC_NODE><ARG_OF_PERICENTER>299.4091</ARG_OF_PERICENTER><MEAN_ANOMALY>60.6473</MEAN_ANOMALY></meanElements><tleParameters><EPHEMERIS_TYPE>0</EPHEMERIS_TYPE><CLASSIFICATION_TYPE>U</CLASSIFICATION_TYPE><NORAD_CAT_ID>41183</NORAD_CAT_ID><ELEMENT_SET_NO>999</ELEMENT_SET_NO><REV_AT_EPOCH>53248</REV_AT_EPOCH><BSTAR>.19753E-3</BSTAR><MEAN_MOTION_DOT>.757E-5</MEAN_MOTION_DOT><MEAN_MOTION_DDOT>0</MEAN_MOTION_DDOT></tleParameters></data></segment></body></omm>
<omm id="CCSDS_OMM_VERS" version="2.0">
<header><CREATION_DATE/><ORIGINATOR/></header><body><segment><metadata><OBJECT_NAME>ORBCOMM FM112</OBJECT_NAME><OBJECT_ID>2015-081F</OBJECT_ID><CENTER_NAME>EARTH</CENTER_NAME><REF_FRAME>TEME</REF_FRAME><TIME_SYSTEM>UTC</TIME_SYSTEM><MEAN_ELEMENT_THEORY>SGP4</MEAN_ELEMENT_THEORY></metadata><data><meanElements><EPOCH>2025-12-26T01:29:03.089184</EPOCH><MEAN_MOTION>14.58601626</MEAN_MOTION><ECCENTRICITY>.00010175</ECCENTRICITY><INCLINATION>46.9999</INCLINATION><RA_OF_ASC_NODE>8.6923</RA_OF_ASC_NODE><ARG_OF_PERICENTER>174.1677</ARG_OF_PERICENTER><MEAN_ANOMALY>185.9221</MEAN_ANOMALY></meanElements><tleParameters><EPHEMERIS_TYPE>0</EPHEMERIS_TYPE><CLASSIFICATION_TYPE>U</CLASSIFICATION_TYPE><NORAD_CAT_ID>41184</NORAD_CAT_ID><ELEMENT_SET_NO>999</ELEMENT_SET_NO><REV_AT_EPOCH>53367</REV_AT_EPOCH><BSTAR>.19750988E-3</BSTAR><MEAN_MOTION_DOT>.758E-5</MEAN_MOTION_DOT><MEAN_MOTION_DDOT>0</MEAN_MOTION_DDOT></tleParameters></data></segment></body></omm>
<omm id="CCSDS_OMM_VERS" version="2.0">
<header><CREATION_DATE/><ORIGINATOR/></header><body><segment><metadata><OBJECT_NAME>ORBCOMM FM113</OBJECT_NAME><OBJECT_ID>2015-081G</OBJECT_ID><CENTER_NAME>EARTH</CENTER_NAME><REF_FRAME>TEME</REF_FRAME><TIME_SYSTEM>UTC</TIME_SYSTEM><MEAN_ELEMENT_THEORY>SGP4</MEAN_ELEMENT_THEORY></metadata><data><meanElements><EPOCH>2025-12-26T00:56:20.755968</EPOCH><MEAN_MOTION>14.58598779</MEAN_MOTION><ECCENTRICITY>.00010516</ECCENTRICITY><INCLINATION>47.0016</INCLINATION><RA_OF_ASC_NODE>9.1574</RA_OF_ASC_NODE><ARG_OF_PERICENTER>196.0177</ARG_OF_PERICENTER><MEAN_ANOMALY>164.0676</MEAN_ANOMALY></meanElements><tleParameters><EPHEMERIS_TYPE>0</EPHEMERIS_TYPE><CLASSIFICATION_TYPE>U</CLASSIFICATION_TYPE><NORAD_CAT_ID>41185</NORAD_CAT_ID><ELEMENT_SET_NO>999</ELEMENT_SET_NO><REV_AT_EPOCH>53365</REV_AT_EPOCH><BSTAR>.20558943E-3</BSTAR><MEAN_MOTION_DOT>.796E-5</MEAN_MOTION_DOT><MEAN_MOTION_DDOT>0</MEAN_MOTION_DDOT></tleParameters></data></segment></body></omm>

</ndm>
