ORBCOMM FM103           
1 40091U 14040F   25360.22384263  .00000482  00000+0  13896-3 0  9992
2 40091  47.0033 190.6462 0001222  83.0815 277.0209 14.58553124592138
ORBCOMM FM114           
1 41179U 15081A   25360.24043193  .00000685  00000+0  18220-3 0  9993
2 41179  47.0045  99.5205 0001915 151.5718 208.5273 14.58575086532509
ORBCOMM FM119           
1 41180U 15081B   25360.09995370  .00000673  00000+0  17986-3 0  9996
2 41180  47.0014   9.5437 0001681 241.9572 118.1144 14.58523744533730
ORBCOMM FM105           
1 41181U 15081C   25360.12620215  .00000246  00000+0  11386-3 0  9998
2 41181  47.0020  33.1290 0000846 119.8914 240.2051 14.45415702528517
ORBCOMM FM110           
1 41182U 15081D   25360.29864396  .00000868  00000+0  22096-3 0  9997
2 41182  47.0018  98.7414 0002341 334.6350  25.4420 14.58605887532385
ORBCOMM FM118           
1 41183U 15081E   25360.26468368  .00000757  00000+0  19753-3 0  9997
2 41183  47.0040  99.2027 0003224 299.4091  60.6473 14.58596798532488
ORBCOMM FM112           
1 41184U 15081F   25360.06184131  .00000758  00000+0  19751-3 0  9998
2 41184  46.9999   8.6923 0001017 174.1677 185.9221 14.58601626533677
ORBCOMM FM113           
1 41185U 15081G   25360.03912912  .00000796  00000+0  20559-3 0  9992
2 41185  47.0016   9.1574 0001051 196.0177 164.0676 14.58598779533658
